0 ATLAS 5 CENTAUR R/B
1 39071U 13004B   13283.30323865  .00000040  00000-0  10000-3 0  1052
2 39071 025.6345 293.3682 5918279 248.3149 040.8548 02.09789732  5294
0 ATLAS 5 CENTAUR R/B
1 39071U 13004B   13283.30324685 -.00000030  00000-0  10000-3 0  1064
2 39071 025.6172 293.3811 5916306 248.3072 040.8559 02.09788143  5297
0 ATLAS 5 CENTAUR R/B
1 39071U 13004B   13285.68585148 -.00000194  00000-0  10000-3 0  1061
2 39071 025.6319 292.9770 5917953 248.9781 040.3006 02.09792096  5341
0 ATLAS 5 CENTAUR R/B
1 39071U 13004B   13289.02142748 -.00000387  00000-0  10000-3 0  1073
2 39071 025.6263 292.4380 5917389 249.8980 039.4968 02.09794099  5414
0 ATLAS 5 CENTAUR R/B
1 39071U 13004B   13290.45098027  .00000060  00000-0  10000-3 0  1091
2 39071 025.6058 292.1872 5915352 250.3191 039.1480 02.09790996  5449
0 ATLAS 5 CENTAUR R/B
1 39071U 13004B   13290.45100550 -.00000254  00000-0  10000-3 0  1081
2 39071 025.6231 292.1952 5917312 250.3036 039.1787 02.09792404  5443
0 ATLAS 5 CENTAUR R/B
1 39071U 13004B   13295.21638823 -.00000017  00000-0  10000-3 0  1097
2 39071 025.6178 291.3960 5916844 251.6508 038.1660 02.09789902  5549
